<?xml version="1.0" encoding="UTF-8"?>
<gpx version="1.1" creator="HealthSync iOS"
     xmlns="http://www.topografix.com/GPX/1/1"
     xmlns:gpxtpx="http://www.garmin.com/xmlschemas/TrackPointExtension/v1"
     xmlns:xsi="http://www.w3.org/2001/XMLSchema-instance"
     xsi:schemaLocation="http://www.topografix.com/GPX/1/1 http://www.topografix.com/GPX/1/1/gpx.xsd http://www.garmin.com/xmlschemas/TrackPointExtension/v1 http://www.garmin.com/xmlschemas/TrackPointExtensionv1.xsd">
  <trk>
    <name>Running 2026/7/21, 21:10</name>
    <type>running</type>
    <trkseg>
      <trkpt lat="40.07094470113166" lon="116.34848437546705">
        <ele>42.4</ele>
        <time>2026-07-21T13:10:30.969Z</time>
      </trkpt>
      <trkpt lat="40.07094215158327" lon="116.34847188606058">
        <ele>42.4</ele>
        <time>2026-07-21T13:10:31.969Z</time>
      </trkpt>
      <trkpt lat="40.07093943462121" lon="116.34845816452709">
        <ele>42.3</ele>
        <time>2026-07-21T13:10:32.968Z</time>
      </trkpt>
      <trkpt lat="40.07093571051437" lon="116.34844103754259">
        <ele>42.3</ele>
        <time>2026-07-21T13:10:33.968Z</time>
      </trkpt>
      <trkpt lat="40.070931027920786" lon="116.34842133834383">
        <ele>42.3</ele>
        <time>2026-07-21T13:10:34.968Z</time>
      </trkpt>
      <trkpt lat="40.0709243697245" lon="116.34839906539759">
        <ele>42.3</ele>
        <time>2026-07-21T13:10:35.968Z</time>
      </trkpt>
      <trkpt lat="40.07091499198144" lon="116.34837520148">
        <ele>42.3</ele>
        <time>2026-07-21T13:10:36.968Z</time>
      </trkpt>
      <trkpt lat="40.070903033640654" lon="116.34835475900232">
        <ele>42.3</ele>
        <time>2026-07-21T13:10:37.967Z</time>
      </trkpt>
      <trkpt lat="40.07088693661721" lon="116.34834072271974">
        <ele>42.3</ele>
        <time>2026-07-21T13:10:38.967Z</time>
      </trkpt>
      <trkpt lat="40.070864982767304" lon="116.34833402411343">
        <ele>42.3</ele>
        <time>2026-07-21T13:10:39.967Z</time>
      </trkpt>
      <trkpt lat="40.07083901127762" lon="116.34833398980028">
        <ele>42.4</ele>
        <time>2026-07-21T13:10:40.967Z</time>
      </trkpt>
      <trkpt lat="40.07081084309762" lon="116.3483375241342">
        <ele>42.4</ele>
        <time>2026-07-21T13:10:41.967Z</time>
      </trkpt>
      <trkpt lat="40.07078200309474" lon="116.34834167519247">
        <ele>42.4</ele>
        <time>2026-07-21T13:10:42.967Z</time>
      </trkpt>
      <trkpt lat="40.07075336923807" lon="116.34834644075754">
        <ele>42.5</ele>
        <time>2026-07-21T13:10:43.967Z</time>
      </trkpt>
      <trkpt lat="40.07072303634355" lon="116.34835263772975">
        <ele>42.5</ele>
        <time>2026-07-21T13:10:44.967Z</time>
      </trkpt>
      <trkpt lat="40.070691175440054" lon="116.34835971922217">
        <ele>42.5</ele>
        <time>2026-07-21T13:10:45.966Z</time>
      </trkpt>
      <trkpt lat="40.07065978863165" lon="116.34836565422508">
        <ele>42.6</ele>
        <time>2026-07-21T13:10:46.966Z</time>
      </trkpt>
      <trkpt lat="40.07062956491033" lon="116.34836833314323">
        <ele>42.6</ele>
        <time>2026-07-21T13:10:47.966Z</time>
      </trkpt>
      <trkpt lat="40.07060018409943" lon="116.34836728226541">
        <ele>42.6</ele>
        <time>2026-07-21T13:10:48.966Z</time>
      </trkpt>
      <trkpt lat="40.07057102036601" lon="116.34836492371953">
        <ele>42.6</ele>
        <time>2026-07-21T13:10:49.966Z</time>
      </trkpt>
      <trkpt lat="40.070541703854694" lon="116.34836415293212">
        <ele>42.6</ele>
        <time>2026-07-21T13:10:50.966Z</time>
      </trkpt>
      <trkpt lat="40.070512939205756" lon="116.3483651546624">
        <ele>42.6</ele>
        <time>2026-07-21T13:10:51.966Z</time>
      </trkpt>
      <trkpt lat="40.07048509311321" lon="116.34836650076235">
        <ele>42.6</ele>
        <time>2026-07-21T13:10:52.966Z</time>
      </trkpt>
      <trkpt lat="40.07045757046562" lon="116.34836711943478">
        <ele>42.7</ele>
        <time>2026-07-21T13:10:53.966Z</time>
      </trkpt>
      <trkpt lat="40.07042929065879" lon="116.34836720731789">
        <ele>42.7</ele>
        <time>2026-07-21T13:10:54.966Z</time>
      </trkpt>
      <trkpt lat="40.07040036223079" lon="116.34836749375106">
        <ele>42.7</ele>
        <time>2026-07-21T13:10:55.966Z</time>
      </trkpt>
      <trkpt lat="40.07037141466181" lon="116.34836857780874">
        <ele>42.7</ele>
        <time>2026-07-21T13:10:56.966Z</time>
      </trkpt>
      <trkpt lat="40.070342960186714" lon="116.34837021271031">
        <ele>42.7</ele>
        <time>2026-07-21T13:10:57.966Z</time>
      </trkpt>
      <trkpt lat="40.07031470319489" lon="116.34837120316482">
        <ele>42.7</ele>
        <time>2026-07-21T13:10:58.965Z</time>
      </trkpt>
      <trkpt lat="40.07028685199673" lon="116.34837102347909">
        <ele>42.7</ele>
        <time>2026-07-21T13:10:59.965Z</time>
      </trkpt>
      <trkpt lat="40.07025896710506" lon="116.34837069667715">
        <ele>42.7</ele>
        <time>2026-07-21T13:11:00.965Z</time>
      </trkpt>
      <trkpt lat="40.070230569876195" lon="116.34837079665805">
        <ele>42.7</ele>
        <time>2026-07-21T13:11:01.965Z</time>
      </trkpt>
      <trkpt lat="40.07020218498897" lon="116.34837081967365">
        <ele>42.7</ele>
        <time>2026-07-21T13:11:02.965Z</time>
      </trkpt>
      <trkpt lat="40.07017434867416" lon="116.34836999768149">
        <ele>42.7</ele>
        <time>2026-07-21T13:11:03.965Z</time>
      </trkpt>
      <trkpt lat="40.07014723877826" lon="116.3483681312887">
        <ele>42.8</ele>
        <time>2026-07-21T13:11:04.965Z</time>
      </trkpt>
      <trkpt lat="40.07012069834653" lon="116.34836621560478">
        <ele>42.8</ele>
        <time>2026-07-21T13:11:05.967Z</time>
      </trkpt>
      <trkpt lat="40.07009425601006" lon="116.34836506292336">
        <ele>42.8</ele>
        <time>2026-07-21T13:11:06.969Z</time>
      </trkpt>
      <trkpt lat="40.07006747987451" lon="116.34836415027583">
        <ele>42.8</ele>
        <time>2026-07-21T13:11:07.971Z</time>
      </trkpt>
      <trkpt lat="40.07004027245573" lon="116.34836322160544">
        <ele>42.8</ele>
        <time>2026-07-21T13:11:08.973Z</time>
      </trkpt>
      <trkpt lat="40.0700130173316" lon="116.34836291287891">
        <ele>42.8</ele>
        <time>2026-07-21T13:11:09.975Z</time>
      </trkpt>
      <trkpt lat="40.069986542657944" lon="116.34836340540276">
        <ele>42.8</ele>
        <time>2026-07-21T13:11:10.977Z</time>
      </trkpt>
      <trkpt lat="40.06996112442568" lon="116.34836445458244">
        <ele>42.8</ele>
        <time>2026-07-21T13:11:11.978Z</time>
      </trkpt>
      <trkpt lat="40.069936349047325" lon="116.34836467654056">
        <ele>42.8</ele>
        <time>2026-07-21T13:11:12.980Z</time>
      </trkpt>
      <trkpt lat="40.06991232782258" lon="116.34836167521794">
        <ele>42.8</ele>
        <time>2026-07-21T13:11:13.981Z</time>
      </trkpt>
      <trkpt lat="40.06988919153019" lon="116.3483539177639">
        <ele>42.8</ele>
        <time>2026-07-21T13:11:14.983Z</time>
      </trkpt>
      <trkpt lat="40.0698672413338" lon="116.34834099349355">
        <ele>42.8</ele>
        <time>2026-07-21T13:11:15.984Z</time>
      </trkpt>
      <trkpt lat="40.06984710149911" lon="116.34832285671604">
        <ele>42.8</ele>
        <time>2026-07-21T13:11:16.985Z</time>
      </trkpt>
      <trkpt lat="40.06982989763113" lon="116.34829955198053">
        <ele>42.8</ele>
        <time>2026-07-21T13:11:17.986Z</time>
      </trkpt>
      <trkpt lat="40.06981662770377" lon="116.34827108711542">
        <ele>42.8</ele>
        <time>2026-07-21T13:11:18.987Z</time>
      </trkpt>
      <trkpt lat="40.06980825426507" lon="116.34823847468707">
        <ele>42.8</ele>
        <time>2026-07-21T13:11:19.988Z</time>
      </trkpt>
      <trkpt lat="40.06980502518424" lon="116.34820285242863">
        <ele>42.8</ele>
        <time>2026-07-21T13:11:20.989Z</time>
      </trkpt>
      <trkpt lat="40.06980588589745" lon="116.34816645765741">
        <ele>42.9</ele>
        <time>2026-07-21T13:11:21.990Z</time>
      </trkpt>
      <trkpt lat="40.069809873050026" lon="116.34813091311203">
        <ele>42.9</ele>
        <time>2026-07-21T13:11:22.990Z</time>
      </trkpt>
      <trkpt lat="40.069815341641274" lon="116.3480961174252">
        <ele>42.9</ele>
        <time>2026-07-21T13:11:23.991Z</time>
      </trkpt>
      <trkpt lat="40.069820619162996" lon="116.3480614766468">
        <ele>42.9</ele>
        <time>2026-07-21T13:11:24.992Z</time>
      </trkpt>
      <trkpt lat="40.069824659896646" lon="116.34802711807667">
        <ele>42.9</ele>
        <time>2026-07-21T13:11:25.992Z</time>
      </trkpt>
      <trkpt lat="40.06982730754953" lon="116.34799327899178">
        <ele>42.9</ele>
        <time>2026-07-21T13:11:26.993Z</time>
      </trkpt>
      <trkpt lat="40.06982915052637" lon="116.34795964403709">
        <ele>42.9</ele>
        <time>2026-07-21T13:11:27.993Z</time>
      </trkpt>
      <trkpt lat="40.069830650629164" lon="116.34792627899137">
        <ele>42.9</ele>
        <time>2026-07-21T13:11:28.994Z</time>
      </trkpt>
      <trkpt lat="40.069831657848205" lon="116.34789289307831">
        <ele>42.9</ele>
        <time>2026-07-21T13:11:29.994Z</time>
      </trkpt>
      <trkpt lat="40.06983221525759" lon="116.34785879365904">
        <ele>43.0</ele>
        <time>2026-07-21T13:11:30.995Z</time>
      </trkpt>
      <trkpt lat="40.06983254877011" lon="116.34782439859278">
        <ele>43.0</ele>
        <time>2026-07-21T13:11:31.995Z</time>
      </trkpt>
      <trkpt lat="40.06983250756239" lon="116.34779076971637">
        <ele>43.0</ele>
        <time>2026-07-21T13:11:32.996Z</time>
      </trkpt>
      <trkpt lat="40.06983179758752" lon="116.34775851192931">
        <ele>43.0</ele>
        <time>2026-07-21T13:11:33.996Z</time>
      </trkpt>
      <trkpt lat="40.069830563499146" lon="116.34772718572609">
        <ele>43.0</ele>
        <time>2026-07-21T13:11:34.996Z</time>
      </trkpt>
      <trkpt lat="40.06982975804047" lon="116.34769502321019">
        <ele>43.0</ele>
        <time>2026-07-21T13:11:35.997Z</time>
      </trkpt>
      <trkpt lat="40.069829872135905" lon="116.34766147883137">
        <ele>43.0</ele>
        <time>2026-07-21T13:11:36.997Z</time>
      </trkpt>
      <trkpt lat="40.069830777923016" lon="116.3476274169738">
        <ele>43.0</ele>
        <time>2026-07-21T13:11:37.997Z</time>
      </trkpt>
      <trkpt lat="40.069832120406375" lon="116.347593531246">
        <ele>43.0</ele>
        <time>2026-07-21T13:11:38.998Z</time>
      </trkpt>
      <trkpt lat="40.069833976532834" lon="116.34755979324545">
        <ele>43.1</ele>
        <time>2026-07-21T13:11:39.998Z</time>
      </trkpt>
      <trkpt lat="40.06983646562817" lon="116.34752634416063">
        <ele>43.1</ele>
        <time>2026-07-21T13:11:40.998Z</time>
      </trkpt>
      <trkpt lat="40.06983855100712" lon="116.34749274997998">
        <ele>43.1</ele>
        <time>2026-07-21T13:11:41.998Z</time>
      </trkpt>
      <trkpt lat="40.06983948883237" lon="116.34745833882367">
        <ele>43.1</ele>
        <time>2026-07-21T13:11:42.998Z</time>
      </trkpt>
      <trkpt lat="40.06984008357247" lon="116.34742274345002">
        <ele>43.1</ele>
        <time>2026-07-21T13:11:43.999Z</time>
      </trkpt>
      <trkpt lat="40.06984083563261" lon="116.3473866213007">
        <ele>43.1</ele>
        <time>2026-07-21T13:11:44.999Z</time>
      </trkpt>
      <trkpt lat="40.069841552400554" lon="116.34735040920579">
        <ele>43.1</ele>
        <time>2026-07-21T13:11:45.999Z</time>
      </trkpt>
      <trkpt lat="40.0698419417201" lon="116.34731410521776">
        <ele>43.1</ele>
        <time>2026-07-21T13:11:46.999Z</time>
      </trkpt>
      <trkpt lat="40.06984186956089" lon="116.3472776447417">
        <ele>43.1</ele>
        <time>2026-07-21T13:11:47.999Z</time>
      </trkpt>
      <trkpt lat="40.06984174351005" lon="116.34724091700014">
        <ele>43.1</ele>
        <time>2026-07-21T13:11:48.999Z</time>
      </trkpt>
      <trkpt lat="40.06984154743767" lon="116.34720366648574">
        <ele>43.2</ele>
        <time>2026-07-21T13:11:50.000Z</time>
      </trkpt>
      <trkpt lat="40.069841163142776" lon="116.34716635611758">
        <ele>43.2</ele>
        <time>2026-07-21T13:11:51.000Z</time>
      </trkpt>
      <trkpt lat="40.06984088218673" lon="116.34712945057329">
        <ele>43.2</ele>
        <time>2026-07-21T13:11:52.000Z</time>
      </trkpt>
      <trkpt lat="40.06984066248252" lon="116.34709275471508">
        <ele>43.2</ele>
        <time>2026-07-21T13:11:53.000Z</time>
      </trkpt>
      <trkpt lat="40.06984042635106" lon="116.34705579181063">
        <ele>43.2</ele>
        <time>2026-07-21T13:11:54.000Z</time>
      </trkpt>
      <trkpt lat="40.06984030195675" lon="116.34701754130977">
        <ele>43.2</ele>
        <time>2026-07-21T13:11:55.000Z</time>
      </trkpt>
      <trkpt lat="40.069840048154255" lon="116.34697843360466">
        <ele>43.2</ele>
        <time>2026-07-21T13:11:56.000Z</time>
      </trkpt>
      <trkpt lat="40.06983975207702" lon="116.34693852073723">
        <ele>43.2</ele>
        <time>2026-07-21T13:11:57.000Z</time>
      </trkpt>
      <trkpt lat="40.06983972465459" lon="116.34689842613264">
        <ele>43.2</ele>
        <time>2026-07-21T13:11:58.000Z</time>
      </trkpt>
      <trkpt lat="40.06984008081405" lon="116.34685896737976">
        <ele>43.2</ele>
        <time>2026-07-21T13:11:59.000Z</time>
      </trkpt>
      <trkpt lat="40.069839895563504" lon="116.34682000459156">
        <ele>43.3</ele>
        <time>2026-07-21T13:12:00.000Z</time>
      </trkpt>
      <trkpt lat="40.069838691122676" lon="116.34678146475586">
        <ele>43.3</ele>
        <time>2026-07-21T13:12:01.001Z</time>
      </trkpt>
      <trkpt lat="40.06983752354745" lon="116.3467431680361">
        <ele>43.3</ele>
        <time>2026-07-21T13:12:02.001Z</time>
      </trkpt>
      <trkpt lat="40.06983702519825" lon="116.34670535692753">
        <ele>43.3</ele>
        <time>2026-07-21T13:12:03.001Z</time>
      </trkpt>
      <trkpt lat="40.06983705410431" lon="116.34666809616509">
        <ele>43.3</ele>
        <time>2026-07-21T13:12:04.001Z</time>
      </trkpt>
      <trkpt lat="40.069837815554315" lon="116.3466322667907">
        <ele>43.3</ele>
        <time>2026-07-21T13:12:05.001Z</time>
      </trkpt>
      <trkpt lat="40.06983966667269" lon="116.34659796379214">
        <ele>43.3</ele>
        <time>2026-07-21T13:12:06.001Z</time>
      </trkpt>
      <trkpt lat="40.06984165124598" lon="116.34656455103084">
        <ele>43.3</ele>
        <time>2026-07-21T13:12:07.001Z</time>
      </trkpt>
      <trkpt lat="40.06984283037221" lon="116.34653065425351">
        <ele>43.4</ele>
        <time>2026-07-21T13:12:08.001Z</time>
      </trkpt>
      <trkpt lat="40.06984313823476" lon="116.34649651554346">
        <ele>43.4</ele>
        <time>2026-07-21T13:12:09.001Z</time>
      </trkpt>
      <trkpt lat="40.06984318611667" lon="116.3464628658688">
        <ele>43.4</ele>
        <time>2026-07-21T13:12:10.001Z</time>
      </trkpt>
      <trkpt lat="40.06984399138797" lon="116.34643047624155">
        <ele>43.4</ele>
        <time>2026-07-21T13:12:11.001Z</time>
      </trkpt>
      <trkpt lat="40.06984556303097" lon="116.34639896347123">
        <ele>43.4</ele>
        <time>2026-07-21T13:12:12.001Z</time>
      </trkpt>
      <trkpt lat="40.069846667991456" lon="116.34636805469809">
        <ele>43.4</ele>
        <time>2026-07-21T13:12:13.001Z</time>
      </trkpt>
      <trkpt lat="40.0698470121005" lon="116.34633715372122">
        <ele>43.4</ele>
        <time>2026-07-21T13:12:14.001Z</time>
      </trkpt>
      <trkpt lat="40.06984718963682" lon="116.34630556142743">
        <ele>43.4</ele>
        <time>2026-07-21T13:12:15.001Z</time>
      </trkpt>
      <trkpt lat="40.069847701079844" lon="116.34627315489834">
        <ele>43.4</ele>
        <time>2026-07-21T13:12:16.001Z</time>
      </trkpt>
      <trkpt lat="40.069848408460764" lon="116.34624064407367">
        <ele>43.4</ele>
        <time>2026-07-21T13:12:17.001Z</time>
      </trkpt>
      <trkpt lat="40.06984868012567" lon="116.34620851321131">
        <ele>43.4</ele>
        <time>2026-07-21T13:12:18.001Z</time>
      </trkpt>
      <trkpt lat="40.0698482244769" lon="116.34617673237251">
        <ele>43.4</ele>
        <time>2026-07-21T13:12:19.001Z</time>
      </trkpt>
      <trkpt lat="40.06984754159843" lon="116.34614516950595">
        <ele>43.4</ele>
        <time>2026-07-21T13:12:20.001Z</time>
      </trkpt>
      <trkpt lat="40.06984695735096" lon="116.34611329721591">
        <ele>43.4</ele>
        <time>2026-07-21T13:12:21.001Z</time>
      </trkpt>
      <trkpt lat="40.069846065508635" lon="116.34608124695545">
        <ele>43.4</ele>
        <time>2026-07-21T13:12:22.001Z</time>
      </trkpt>
      <trkpt lat="40.069845043615416" lon="116.34604931349703">
        <ele>43.4</ele>
        <time>2026-07-21T13:12:23.001Z</time>
      </trkpt>
      <trkpt lat="40.06984495539011" lon="116.34601800069166">
        <ele>43.4</ele>
        <time>2026-07-21T13:12:24.001Z</time>
      </trkpt>
      <trkpt lat="40.06984598195185" lon="116.34598743048149">
        <ele>43.4</ele>
        <time>2026-07-21T13:12:25.001Z</time>
      </trkpt>
      <trkpt lat="40.06984700620977" lon="116.34595741027594">
        <ele>43.4</ele>
        <time>2026-07-21T13:12:26.001Z</time>
      </trkpt>
      <trkpt lat="40.06984749507645" lon="116.34592728902155">
        <ele>43.4</ele>
        <time>2026-07-21T13:12:27.001Z</time>
      </trkpt>
      <trkpt lat="40.06984779581967" lon="116.34589674076744">
        <ele>43.4</ele>
        <time>2026-07-21T13:12:28.001Z</time>
      </trkpt>
      <trkpt lat="40.06984879843788" lon="116.3458660443843">
        <ele>43.4</ele>
        <time>2026-07-21T13:12:29.001Z</time>
      </trkpt>
      <trkpt lat="40.069850085792226" lon="116.3458356326687">
        <ele>43.3</ele>
        <time>2026-07-21T13:12:30.001Z</time>
      </trkpt>
      <trkpt lat="40.069850481885915" lon="116.34580526793266">
        <ele>43.3</ele>
        <time>2026-07-21T13:12:31.001Z</time>
      </trkpt>
      <trkpt lat="40.06985004527923" lon="116.34577493544352">
        <ele>43.3</ele>
        <time>2026-07-21T13:12:32.001Z</time>
      </trkpt>
      <trkpt lat="40.06984953440948" lon="116.34574485512134">
        <ele>43.3</ele>
        <time>2026-07-21T13:12:33.001Z</time>
      </trkpt>
      <trkpt lat="40.06984931521718" lon="116.34571525341426">
        <ele>43.3</ele>
        <time>2026-07-21T13:12:34.001Z</time>
      </trkpt>
      <trkpt lat="40.069849383144486" lon="116.34568592850279">
        <ele>43.3</ele>
        <time>2026-07-21T13:12:35.001Z</time>
      </trkpt>
      <trkpt lat="40.06984956609534" lon="116.34565632940594">
        <ele>43.3</ele>
        <time>2026-07-21T13:12:36.001Z</time>
      </trkpt>
      <trkpt lat="40.06984942581874" lon="116.34562656624611">
        <ele>43.4</ele>
        <time>2026-07-21T13:12:37.001Z</time>
      </trkpt>
      <trkpt lat="40.06984897093065" lon="116.3455970250424">
        <ele>43.4</ele>
        <time>2026-07-21T13:12:38.001Z</time>
      </trkpt>
      <trkpt lat="40.06984870556416" lon="116.3455669677155">
        <ele>43.5</ele>
        <time>2026-07-21T13:12:39.001Z</time>
      </trkpt>
      <trkpt lat="40.06984899052415" lon="116.34553587377566">
        <ele>43.5</ele>
        <time>2026-07-21T13:12:40.001Z</time>
      </trkpt>
      <trkpt lat="40.06984967129938" lon="116.3455041466116">
        <ele>43.6</ele>
        <time>2026-07-21T13:12:41.001Z</time>
      </trkpt>
      <trkpt lat="40.06985052490972" lon="116.34547234608694">
        <ele>43.7</ele>
        <time>2026-07-21T13:12:42.001Z</time>
      </trkpt>
      <trkpt lat="40.069851302022755" lon="116.34544144998638">
        <ele>43.8</ele>
        <time>2026-07-21T13:12:43.001Z</time>
      </trkpt>
      <trkpt lat="40.06985214331291" lon="116.34541015604242">
        <ele>43.8</ele>
        <time>2026-07-21T13:12:44.001Z</time>
      </trkpt>
      <trkpt lat="40.06985347074903" lon="116.34537884324773">
        <ele>43.9</ele>
        <time>2026-07-21T13:12:45.001Z</time>
      </trkpt>
      <trkpt lat="40.06985488770444" lon="116.34534783060218">
        <ele>44.0</ele>
        <time>2026-07-21T13:12:46.001Z</time>
      </trkpt>
      <trkpt lat="40.06985617524127" lon="116.34531721168545">
        <ele>44.0</ele>
        <time>2026-07-21T13:12:47.001Z</time>
        <extensions>
  <gpxtpx:TrackPointExtension>
    <gpxtpx:hr>155</gpxtpx:hr>
  </gpxtpx:TrackPointExtension>
</extensions>
      </trkpt>
      <trkpt lat="40.06985725156098" lon="116.34528665981986">
        <ele>44.1</ele>
        <time>2026-07-21T13:12:48.001Z</time>
        <extensions>
  <gpxtpx:TrackPointExtension>
    <gpxtpx:hr>155</gpxtpx:hr>
  </gpxtpx:TrackPointExtension>
</extensions>
      </trkpt>
      <trkpt lat="40.06985794922072" lon="116.34525608192276">
        <ele>44.2</ele>
        <time>2026-07-21T13:12:49.001Z</time>
        <extensions>
  <gpxtpx:TrackPointExtension>
    <gpxtpx:hr>155</gpxtpx:hr>
  </gpxtpx:TrackPointExtension>
</extensions>
      </trkpt>
      <trkpt lat="40.06985820438875" lon="116.34522580268873">
        <ele>44.2</ele>
        <time>2026-07-21T13:12:50.001Z</time>
        <extensions>
  <gpxtpx:TrackPointExtension>
    <gpxtpx:hr>155</gpxtpx:hr>
  </gpxtpx:TrackPointExtension>
</extensions>
      </trkpt>
      <trkpt lat="40.06985882933385" lon="116.3451971425419">
        <ele>44.3</ele>
        <time>2026-07-21T13:12:51.001Z</time>
        <extensions>
  <gpxtpx:TrackPointExtension>
    <gpxtpx:hr>155</gpxtpx:hr>
  </gpxtpx:TrackPointExtension>
</extensions>
      </trkpt>
      <trkpt lat="40.06986195067148" lon="116.34517078429354">
        <ele>44.3</ele>
        <time>2026-07-21T13:12:52.001Z</time>
        <extensions>
  <gpxtpx:TrackPointExtension>
    <gpxtpx:hr>155</gpxtpx:hr>
  </gpxtpx:TrackPointExtension>
</extensions>
      </trkpt>
      <trkpt lat="40.06986784992156" lon="116.3451455015948">
        <ele>44.4</ele>
        <time>2026-07-21T13:12:53.001Z</time>
        <extensions>
  <gpxtpx:TrackPointExtension>
    <gpxtpx:hr>155</gpxtpx:hr>
  </gpxtpx:TrackPointExtension>
</extensions>
      </trkpt>    </trkseg>
  </trk>
</gpx>